start=new Date('2022-10-29T00:00:00.000Z').valueOf();
sats=[{"SITE":"AFETR","TIME_SYSTEM":"UTC","COUNTRY_CODE":"US","OBJECT_NAME":"STARLINK-4554","MEAN_ELEMENT_THEORY":"SGP4","SEMIMAJOR_AXIS":"6863.869","CENTER_NAME":"EARTH","APOAPSIS":"486.843","MEAN_MOTION_DOT":"-0.01063148","RA_OF_ASC_NODE":"345.9291","TLE_LINE1":"1 53626U 22104AQ  22301.91668981 -.01063148  00000-0 -43609-1 0  9995","FILE":"3637111","LAUNCH_DATE":"2022-08-28","GP_ID":"216411325","DECAY_DATE":null,"ELEMENT_SET_NO":"999","PERIAPSIS":"484.624","BSTAR":"-0.04360900000000","INCLINATION":"53.2175","RCS_SIZE":"LARGE","OBJECT_ID":"2022-104AQ","REF_FRAME":"TEME","ECCENTRICITY":"0.00016160","TLE_LINE2":"2 53626  53.2175 345.9291 0001616  43.0534 224.9822 15.26684572  1302","MEAN_MOTION_DDOT":"0.0000000000000","ARG_OF_PERICENTER":"43.0534","EPOCH":"2022-10-28T22:00:01.999584","MEAN_ANOMALY":"224.9822","NORAD_CAT_ID":"53626","EPHEMERIS_TYPE":"0","REV_AT_EPOCH":"130","PERIOD":"94.322","CLASSIFICATION_TYPE":"U","MEAN_MOTION":"15.26684572","OBJECT_TYPE":"PAYLOAD"},{"BSTAR":"-0.04434000000000","INCLINATION":"53.2174","PERIAPSIS":"486.244","ELEMENT_SET_NO":"999","DECAY_DATE":null,"GP_ID":"216410381","MEAN_MOTION_DDOT":"0.0000000000000","TLE_LINE2":"2 53627  53.2174 345.9761 0001780  38.4909 205.5286 15.26106616  1307","ECCENTRICITY":"0.00017800","REF_FRAME":"TEME","OBJECT_ID":"2022-104AR","RCS_SIZE":"LARGE","EPHEMERIS_TYPE":"0","REV_AT_EPOCH":"130","ARG_OF_PERICENTER":"38.4909","EPOCH":"2022-10-28T22:00:01.999584","MEAN_ANOMALY":"205.5286","NORAD_CAT_ID":"53627","OBJECT_TYPE":"PAYLOAD","CLASSIFICATION_TYPE":"U","MEAN_MOTION":"15.26106616","PERIOD":"94.358","TIME_SYSTEM":"UTC","SITE":"AFETR","COUNTRY_CODE":"US","CENTER_NAME":"EARTH","SEMIMAJOR_AXIS":"6865.601","MEAN_ELEMENT_THEORY":"SGP4","OBJECT_NAME":"STARLINK-4595","LAUNCH_DATE":"2022-08-28","FILE":"3637111","TLE_LINE1":"1 53627U 22104AR  22301.91668981 -.01062235  00000-0 -44340-1 0  9995","RA_OF_ASC_NODE":"345.9761","MEAN_MOTION_DOT":"-0.01062235","APOAPSIS":"488.689"},{"ARG_OF_PERICENTER":"35.6902","MEAN_ANOMALY":"255.8310","NORAD_CAT_ID":"53628","EPOCH":"2022-10-28T22:00:01.999584","REV_AT_EPOCH":"130","EPHEMERIS_TYPE":"0","PERIOD":"94.286","OBJECT_TYPE":"PAYLOAD","CLASSIFICATION_TYPE":"U","MEAN_MOTION":"15.27269531","DECAY_DATE":null,"GP_ID":"216411151","ELEMENT_SET_NO":"999","PERIAPSIS":"482.869","INCLINATION":"53.2174","BSTAR":"-0.04333400000000","OBJECT_ID":"2022-104AS","REF_FRAME":"TEME","RCS_SIZE":"LARGE","MEAN_MOTION_DDOT":"0.0000000000000","TLE_LINE2":"2 53628  53.2174 345.8830 0001620  35.6902 255.8310 15.27269531  1302","ECCENTRICITY":"0.00016200","MEAN_ELEMENT_THEORY":"SGP4","OBJECT_NAME":"STARLINK-4600","SEMIMAJOR_AXIS":"6862.116","CENTER_NAME":"EARTH","MEAN_MOTION_DOT":"-0.01074473","RA_OF_ASC_NODE":"345.8830","APOAPSIS":"485.093","LAUNCH_DATE":"2022-08-28","TLE_LINE1":"1 53628U 22104AS  22301.91668981 -.01074473  00000-0 -43334-1 0  9995","FILE":"3637111","SITE":"AFETR","TIME_SYSTEM":"UTC","COUNTRY_CODE":"US"},{"GP_ID":"216410974","DECAY_DATE":null,"ELEMENT_SET_NO":"999","PERIAPSIS":"485.571","INCLINATION":"53.2175","BSTAR":"-0.04399100000000","OBJECT_ID":"2022-104AT","REF_FRAME":"TEME","RCS_SIZE":"LARGE","MEAN_MOTION_DDOT":"0.0000000000000","TLE_LINE2":"2 53629  53.2175 345.9522 0001498  53.0788 203.0146 15.26395938  1304","ECCENTRICITY":"0.00014980","MEAN_ANOMALY":"203.0146","ARG_OF_PERICENTER":"53.0788","EPOCH":"2022-10-28T22:00:01.999584","NORAD_CAT_ID":"53629","EPHEMERIS_TYPE":"0","REV_AT_EPOCH":"130","PERIOD":"94.340","OBJECT_TYPE":"PAYLOAD","CLASSIFICATION_TYPE":"U","MEAN_MOTION":"15.26395938","SITE":"AFETR","TIME_SYSTEM":"UTC","COUNTRY_CODE":"US","OBJECT_NAME":"STARLINK-4602","MEAN_ELEMENT_THEORY":"SGP4","SEMIMAJOR_AXIS":"6864.734","CENTER_NAME":"EARTH","MEAN_MOTION_DOT":"-0.01063053","RA_OF_ASC_NODE":"345.9522","APOAPSIS":"487.627","LAUNCH_DATE":"2022-08-28","TLE_LINE1":"1 53629U 22104AT  22301.91668981 -.01063053  00000-0 -43991-1 0  9997","FILE":"3637111"},{"COUNTRY_CODE":"US","TIME_SYSTEM":"UTC","SITE":"AFETR","RA_OF_ASC_NODE":"342.1998","MEAN_MOTION_DOT":"-0.01093839","APOAPSIS":"361.724","LAUNCH_DATE":"2022-08-28","FILE":"3637111","TLE_LINE1":"1 53630U 22104AU  22301.91668981 -.01093839  00000-0 -99124-2 0  9994","SEMIMAJOR_AXIS":"6736.769","MEAN_ELEMENT_THEORY":"SGP4","OBJECT_NAME":"STARLINK-4598","CENTER_NAME":"EARTH","REF_FRAME":"TEME","OBJECT_ID":"2022-104AU","RCS_SIZE":"LARGE","MEAN_MOTION_DDOT":"0.0000000000000","TLE_LINE2":"2 53630  53.2174 342.1998 0004587 268.4120  54.3509 15.70092545  1302","ECCENTRICITY":"0.00045870","DECAY_DATE":null,"GP_ID":"216411609","INCLINATION":"53.2174","BSTAR":"-0.00991240000000","ELEMENT_SET_NO":"999","PERIAPSIS":"355.544","PERIOD":"91.714","OBJECT_TYPE":"PAYLOAD","MEAN_MOTION":"15.70092545","CLASSIFICATION_TYPE":"U","EPOCH":"2022-10-28T22:00:01.999584","ARG_OF_PERICENTER":"268.4120","MEAN_ANOMALY":"54.3509","NORAD_CAT_ID":"53630","EPHEMERIS_TYPE":"0","REV_AT_EPOCH":"130"},{"TIME_SYSTEM":"UTC","SITE":"AFETR","COUNTRY_CODE":"US","CENTER_NAME":"EARTH","SEMIMAJOR_AXIS":"6863.006","OBJECT_NAME":"STARLINK-4599","MEAN_ELEMENT_THEORY":"SGP4","LAUNCH_DATE":"2022-08-28","FILE":"3637111","TLE_LINE1":"1 53631U 22104AV  22301.91668981 -.01062297  00000-0 -43190-1 0  9990","RA_OF_ASC_NODE":"345.9052","MEAN_MOTION_DOT":"-0.01062297","APOAPSIS":"485.958","BSTAR":"-0.04319000000000","INCLINATION":"53.2175","PERIAPSIS":"483.784","ELEMENT_SET_NO":"999","GP_ID":"216410799","DECAY_DATE":null,"MEAN_MOTION_DDOT":"0.0000000000000","TLE_LINE2":"2 53631  53.2175 345.9052 0001584  44.6313 235.2154 15.26972543  1300","ECCENTRICITY":"0.00015840","REF_FRAME":"TEME","OBJECT_ID":"2022-104AV","RCS_SIZE":"LARGE","REV_AT_EPOCH":"130","EPHEMERIS_TYPE":"0","MEAN_ANOMALY":"235.2154","EPOCH":"2022-10-28T22:00:01.999584","ARG_OF_PERICENTER":"44.6313","NORAD_CAT_ID":"53631","OBJECT_TYPE":"PAYLOAD","MEAN_MOTION":"15.26972543","CLASSIFICATION_TYPE":"U","PERIOD":"94.304"},{"SEMIMAJOR_AXIS":"6736.558","MEAN_ELEMENT_THEORY":"SGP4","OBJECT_NAME":"STARLINK-4606","CENTER_NAME":"EARTH","RA_OF_ASC_NODE":"342.1966","MEAN_MOTION_DOT":"-0.01095996","APOAPSIS":"361.607","LAUNCH_DATE":"2022-08-28","FILE":"3637111","TLE_LINE1":"1 53632U 22104AW  22301.91668981 -.01095996  00000-0 -99026-2 0  9993","TIME_SYSTEM":"UTC","SITE":"AFETR","COUNTRY_CODE":"US","MEAN_ANOMALY":"56.0587","EPOCH":"2022-10-28T22:00:01.999584","ARG_OF_PERICENTER":"268.2222","NORAD_CAT_ID":"53632","EPHEMERIS_TYPE":"0","REV_AT_EPOCH":"130","PERIOD":"91.710","OBJECT_TYPE":"PAYLOAD","MEAN_MOTION":"15.70166310","CLASSIFICATION_TYPE":"U","DECAY_DATE":null,"GP_ID":"216411435","INCLINATION":"53.2175","BSTAR":"-0.00990260000000","PERIAPSIS":"355.240","ELEMENT_SET_NO":"999","REF_FRAME":"TEME","OBJECT_ID":"2022-104AW","RCS_SIZE":"LARGE","MEAN_MOTION_DDOT":"0.0000000000000","TLE_LINE2":"2 53632  53.2175 342.1966 0004726 268.2222  56.0587 15.70166310  1303","ECCENTRICITY":"0.00047260"},{"MEAN_MOTION_DDOT":"0.0000000000000","TLE_LINE2":"2 53633  53.2175 342.1977 0003985 268.0733  55.4414 15.70128769  1305","ECCENTRICITY":"0.00039850","OBJECT_ID":"2022-104AX","REF_FRAME":"TEME","RCS_SIZE":"LARGE","PERIAPSIS":"355.846","ELEMENT_SET_NO":"999","INCLINATION":"53.2175","BSTAR":"-0.00992390000000","GP_ID":"216410557","DECAY_DATE":null,"OBJECT_TYPE":"PAYLOAD","MEAN_MOTION":"15.70128769","CLASSIFICATION_TYPE":"U","PERIOD":"91.712","REV_AT_EPOCH":"130","EPHEMERIS_TYPE":"0","ARG_OF_PERICENTER":"268.0733","MEAN_ANOMALY":"55.4414","EPOCH":"2022-10-28T22:00:01.999584","NORAD_CAT_ID":"53633","COUNTRY_CODE":"US","SITE":"AFETR","TIME_SYSTEM":"UTC","LAUNCH_DATE":"2022-08-28","TLE_LINE1":"1 53633U 22104AX  22301.91668981 -.01096128  00000-0 -99239-2 0  9998","FILE":"3637111","MEAN_MOTION_DOT":"-0.01096128","RA_OF_ASC_NODE":"342.1977","APOAPSIS":"361.215","CENTER_NAME":"EARTH","OBJECT_NAME":"STARLINK-4593","MEAN_ELEMENT_THEORY":"SGP4","SEMIMAJOR_AXIS":"6736.666"},{"EPHEMERIS_TYPE":"0","REV_AT_EPOCH":"130","MEAN_ANOMALY":"57.1181","EPOCH":"2022-10-28T22:00:01.999584","NORAD_CAT_ID":"53634","ARG_OF_PERICENTER":"268.6656","OBJECT_TYPE":"PAYLOAD","MEAN_MOTION":"15.70236025","CLASSIFICATION_TYPE":"U","PERIOD":"91.706","INCLINATION":"53.2174","BSTAR":"-0.00986720000000","ELEMENT_SET_NO":"999","PERIAPSIS":"354.680","DECAY_DATE":null,"GP_ID":"216411326","MEAN_MOTION_DDOT":"0.0000000000000","TLE_LINE2":"2 53634  53.2174 342.1937 0005261 268.6656  57.1181 15.70236025  1305","ECCENTRICITY":"0.00052610","REF_FRAME":"TEME","OBJECT_ID":"2022-104AY","RCS_SIZE":"LARGE","CENTER_NAME":"EARTH","SEMIMAJOR_AXIS":"6736.359","OBJECT_NAME":"STARLINK-4592","MEAN_ELEMENT_THEORY":"SGP4","LAUNCH_DATE":"2022-08-28","FILE":"3637111","TLE_LINE1":"1 53634U 22104AY  22301.91668981 -.01095690  00000-0 -98672-2 0  9992","RA_OF_ASC_NODE":"342.1937","MEAN_MOTION_DOT":"-0.01095690","APOAPSIS":"361.768","TIME_SYSTEM":"UTC","SITE":"AFETR","COUNTRY_CODE":"US"},{"REV_AT_EPOCH":"130","EPHEMERIS_TYPE":"0","EPOCH":"2022-10-28T22:00:01.999584","ARG_OF_PERICENTER":"268.2040","MEAN_ANOMALY":"56.8336","NORAD_CAT_ID":"53635","MEAN_MOTION":"15.70202580","CLASSIFICATION_TYPE":"U","OBJECT_TYPE":"PAYLOAD","PERIOD":"91.708","INCLINATION":"53.2175","BSTAR":"-0.00989080000000","ELEMENT_SET_NO":"999","PERIAPSIS":"355.263","GP_ID":"216410382","DECAY_DATE":null,"ECCENTRICITY":"0.00045370","TLE_LINE2":"2 53635  53.2175 342.1945 0004537 268.2040  56.8336 15.70202580  1301","MEAN_MOTION_DDOT":"0.0000000000000","RCS_SIZE":"LARGE","REF_FRAME":"TEME","OBJECT_ID":"2022-104AZ","CENTER_NAME":"EARTH","SEMIMAJOR_AXIS":"6736.455","MEAN_ELEMENT_THEORY":"SGP4","OBJECT_NAME":"STARLINK-4587","FILE":"3637111","TLE_LINE1":"1 53635U 22104AZ  22301.91668981 -.01096213  00000-0 -98908-2 0  9997","LAUNCH_DATE":"2022-08-28","APOAPSIS":"361.376","RA_OF_ASC_NODE":"342.1945","MEAN_MOTION_DOT":"-0.01096213","TIME_SYSTEM":"UTC","SITE":"AFETR","COUNTRY_CODE":"US"}];
